{
  "type": "FeatureCollection",
  "features": [
    {
      "type": "Feature",
      "properties": {
        "norad_id": 35052,
        "name": "IRIDIUM 33 DEB",
        "group": "iridium-33-debris",
        "lat": 80.36260727785657,
        "lon": -179.39666470067903,
        "alt_km": 746.4428473960897,
        "timestamp": "2025-12-07T07:31:36.683554+00:00",
        "meta_object_name": "IRIDIUM 33 DEB",
        "meta_object_id": "1997-051NY",
        "meta_epoch": "2025-12-06T21:03:09.234144",
        "meta_mean_motion": 14.38481992,
        "meta_eccentricity": 0.00136664,
        "meta_inclination": 86.3314,
        "meta_ra_of_asc_node": 22.9895,
        "meta_arg_of_pericenter": 101.3491,
        "meta_mean_anomaly": 258.9243,
        "meta_ephemeris_type": 0,
        "meta_classification_type": "U",
        "meta_norad_cat_id": 35052,
        "meta_element_set_no": 999,
        "meta_rev_at_epoch": 87191,
        "meta_bstar": 0.00033598786,
        "meta_mean_motion_dot": 1.046e-05,
        "meta_mean_motion_ddot": 0,
        "tle_line1": "1 35052U 97051NY  25340.87719021  .00001046  00000+0  33599-3 0  9998",
        "tle_line2": "2 35052  86.3314  22.9895 0013666 101.3491 258.9243 14.38481992871916"
      },
      "geometry": {
        "type": "Point",
        "coordinates": [
          -179.39666470067903,
          80.36260727785657
        ]
      }
    },
    {
      "type": "Feature",
      "properties": {
        "norad_id": 35080,
        "name": "IRIDIUM 33 DEB",
        "group": "iridium-33-debris",
        "lat": 75.24735185466686,
        "lon": 69.56214795878132,
        "alt_km": 629.492309752196,
        "timestamp": "2025-12-07T07:31:36.683566+00:00",
        "meta_object_name": "IRIDIUM 33 DEB",
        "meta_object_id": "1997-051PF",
        "meta_epoch": "2025-12-06T11:46:33.494016",
        "meta_mean_motion": 14.84861675,
        "meta_eccentricity": 0.00624075,
        "meta_inclination": 86.2064,
        "meta_ra_of_asc_node": 55.3603,
        "meta_arg_of_pericenter": 201.0801,
        "meta_mean_anomaly": 158.785,
        "meta_ephemeris_type": 0,
        "meta_classification_type": "U",
        "meta_norad_cat_id": 35080,
        "meta_element_set_no": 999,
        "meta_rev_at_epoch": 69595,
        "meta_bstar": 0.014220361,
        "meta_mean_motion_dot": 0.00127174,
        "meta_mean_motion_ddot": 0,
        "tle_line1": "1 35080U 97051PF  25340.49066544  .00127174  00000+0  14220-1 0  9991",
        "tle_line2": "2 35080  86.2064  55.3603 0062407 201.0801 158.7850 14.84861675695955"
      },
      "geometry": {
        "type": "Point",
        "coordinates": [
          69.56214795878132,
          75.24735185466686
        ]
      }
    },
    {
      "type": "Feature",
      "properties": {
        "norad_id": 35297,
        "name": "IRIDIUM 33 DEB",
        "group": "iridium-33-debris",
        "lat": -56.21127881783782,
        "lon": -109.50569362009418,
        "alt_km": 746.5248856209873,
        "timestamp": "2025-12-07T07:31:36.683576+00:00",
        "meta_object_name": "IRIDIUM 33 DEB",
        "meta_object_id": "1997-051PM",
        "meta_epoch": "2025-12-06T00:31:29.302752",
        "meta_mean_motion": 14.45108459,
        "meta_eccentricity": 0.00170329,
        "meta_inclination": 86.3867,
        "meta_ra_of_asc_node": 65.6268,
        "meta_arg_of_pericenter": 161.2449,
        "meta_mean_anomaly": 198.9384,
        "meta_ephemeris_type": 0,
        "meta_classification_type": "U",
        "meta_norad_cat_id": 35297,
        "meta_element_set_no": 999,
        "meta_rev_at_epoch": 70329,
        "meta_bstar": 0.0012426888,
        "meta_mean_motion_dot": 4.371e-05,
        "meta_mean_motion_ddot": 0,
        "tle_line1": "1 35297U 97051PM  25340.02186693  .00004371  00000+0  12427-2 0  9999",
        "tle_line2": "2 35297  86.3867  65.6268 0017032 161.2449 198.9384 14.45108459703293"
      },
      "geometry": {
        "type": "Point",
        "coordinates": [
          -109.50569362009418,
          -56.21127881783782
        ]
      }
    },
    {
      "type": "Feature",
      "properties": {
        "norad_id": 35299,
        "name": "IRIDIUM 33 DEB",
        "group": "iridium-33-debris",
        "lat": -72.90211283696097,
        "lon": -132.26945010659264,
        "alt_km": 792.0424647383634,
        "timestamp": "2025-12-07T07:31:36.683587+00:00",
        "meta_object_name": "IRIDIUM 33 DEB",
        "meta_object_id": "1997-051PP",
        "meta_epoch": "2025-12-06T14:24:15.119136",
        "meta_mean_motion": 14.40815495,
        "meta_eccentricity": 0.0058804,
        "meta_inclination": 86.2886,
        "meta_ra_of_asc_node": 35.859,
        "meta_arg_of_pericenter": 121.9037,
        "meta_mean_anomaly": 32.622,
        "meta_ephemeris_type": 0,
        "meta_classification_type": "U",
        "meta_norad_cat_id": 35299,
        "meta_element_set_no": 999,
        "meta_rev_at_epoch": 86242,
        "meta_bstar": 0.0014232955,
        "meta_mean_motion_dot": 4.671e-05,
        "meta_mean_motion_ddot": 0,
        "tle_line1": "1 35299U 97051PP  25340.60017499  .00004671  00000+0  14233-2 0  9992",
        "tle_line2": "2 35299  86.2886  35.8590 0058804 121.9037  32.6220 14.40815495862424"
      },
      "geometry": {
        "type": "Point",
        "coordinates": [
          -132.26945010659264,
          -72.90211283696097
        ]
      }
    },
    {
      "type": "Feature",
      "properties": {
        "norad_id": 35480,
        "name": "IRIDIUM 33 DEB",
        "group": "iridium-33-debris",
        "lat": 0.6434045631115538,
        "lon": -152.77573140826942,
        "alt_km": 724.1376254752304,
        "timestamp": "2025-12-07T07:31:36.683597+00:00",
        "meta_object_name": "IRIDIUM 33 DEB",
        "meta_object_id": "1997-051QA",
        "meta_epoch": "2025-12-01T21:29:27.496896",
        "meta_mean_motion": 14.49686619,
        "meta_eccentricity": 0.00155495,
        "meta_inclination": 86.3575,
        "meta_ra_of_asc_node": 29.6125,
        "meta_arg_of_pericenter": 136.7189,
        "meta_mean_anomaly": 223.524,
        "meta_ephemeris_type": 0,
        "meta_classification_type": "U",
        "meta_norad_cat_id": 35480,
        "meta_element_set_no": 999,
        "meta_rev_at_epoch": 86874,
        "meta_bstar": 0.000651702,
        "meta_mean_motion_dot": 2.53e-05,
        "meta_mean_motion_ddot": 0,
        "tle_line1": "1 35480U 97051QA  25335.89545714  .00002530  00000+0  65170-3 0  9994",
        "tle_line2": "2 35480  86.3575  29.6125 0015549 136.7189 223.5240 14.49686619868745"
      },
      "geometry": {
        "type": "Point",
        "coordinates": [
          -152.77573140826942,
          0.6434045631115538
        ]
      }
    },
    {
      "type": "Feature",
      "properties": {
        "norad_id": 35484,
        "name": "IRIDIUM 33 DEB",
        "group": "iridium-33-debris",
        "lat": 66.38887746123036,
        "lon": 166.9189382929963,
        "alt_km": 553.8013092608435,
        "timestamp": "2025-12-07T07:31:36.683608+00:00",
        "meta_object_name": "IRIDIUM 33 DEB",
        "meta_object_id": "1997-051QE",
        "meta_epoch": "2025-12-01T19:32:14.692416",
        "meta_mean_motion": 14.97587734,
        "meta_eccentricity": 0.00218288,
        "meta_inclination": 86.3628,
        "meta_ra_of_asc_node": 357.8533,
        "meta_arg_of_pericenter": 162.6444,
        "meta_mean_anomaly": 197.5538,
        "meta_ephemeris_type": 0,
        "meta_classification_type": "U",
        "meta_norad_cat_id": 35484,
        "meta_element_set_no": 999,
        "meta_rev_at_epoch": 61852,
        "meta_bstar": 0.0025030806,
        "meta_mean_motion_dot": 0.00029486,
        "meta_mean_motion_ddot": 0,
        "tle_line1": "1 35484U 97051QE  25335.81405894  .00029486  00000+0  25031-2 0  9994",
        "tle_line2": "2 35484  86.3628 357.8533 0021828 162.6444 197.5538 14.97587734618526"
      },
      "geometry": {
        "type": "Point",
        "coordinates": [
          166.9189382929963,
          66.38887746123036
        ]
      }
    },
    {
      "type": "Feature",
      "properties": {
        "norad_id": 35488,
        "name": "IRIDIUM 33 DEB",
        "group": "iridium-33-debris",
        "lat": 13.598916274383605,
        "lon": 122.48827230386134,
        "alt_km": 627.5316942321706,
        "timestamp": "2025-12-07T07:31:36.683618+00:00",
        "meta_object_name": "IRIDIUM 33 DEB",
        "meta_object_id": "1997-051QJ",
        "meta_epoch": "2025-12-06T08:06:29.076192",
        "meta_mean_motion": 14.82814099,
        "meta_eccentricity": 0.00304933,
        "meta_inclination": 86.3261,
        "meta_ra_of_asc_node": 303.8283,
        "meta_arg_of_pericenter": 63.1444,
        "meta_mean_anomaly": 297.2891,
        "meta_ephemeris_type": 0,
        "meta_classification_type": "U",
        "meta_norad_cat_id": 35488,
        "meta_element_set_no": 999,
        "meta_rev_at_epoch": 88171,
        "meta_bstar": 0.0025956954,
        "meta_mean_motion_dot": 0.00021231,
        "meta_mean_motion_ddot": 0,
        "tle_line1": "1 35488U 97051QJ  25340.33783653  .00021231  00000+0  25957-2 0  9990",
        "tle_line2": "2 35488  86.3261 303.8283 0030493  63.1444 297.2891 14.82814099881713"
      },
      "geometry": {
        "type": "Point",
        "coordinates": [
          122.48827230386134,
          13.598916274383605
        ]
      }
    }
  ]
}